[{"OBJECT_NAME":"ORS-5 SENSORSAT","OBJECT_ID":"2017-050A","EPOCH":"2026-03-09T15:38:19.109184","MEAN_MOTION":15.0051408,"ECCENTRICITY":0.0010549,"INCLINATION":0.0472,"RA_OF_ASC_NODE":167.086,"ARG_OF_PERICENTER":19.2794,"MEAN_ANOMALY":173.6211,"EPHEMERIS_TYPE":0,"CLASSIFICATION_TYPE":"U","NORAD_CAT_ID":42921,"ELEMENT_SET_NO":999,"REV_AT_EPOCH":46607,"BSTAR":0.00021756,"MEAN_MOTION_DOT":3.656e-5,"MEAN_MOTION_DDOT":0},{"OBJECT_NAME":"STARLINK-4337","OBJECT_ID":"2022-077L","EPOCH":"2026-03-09T22:58:53.318784","MEAN_MOTION":15.01260784,"ECCENTRICITY":0.00014702,"INCLINATION":97.6023,"RA_OF_ASC_NODE":250.4841,"ARG_OF_PERICENTER":88.4337,"MEAN_ANOMALY":271.7056,"EPHEMERIS_TYPE":0,"CLASSIFICATION_TYPE":"U","NORAD_CAT_ID":53053,"ELEMENT_SET_NO":999,"REV_AT_EPOCH":20095,"BSTAR":4.005131e-6,"MEAN_MOTION_DOT":-7.0e-8,"MEAN_MOTION_DDOT":0}]
